[{"OBJECT_NAME":"ONEWEB-0288","OBJECT_ID":"2021-075D","EPOCH":"2025-09-17T22:15:40.676832","MEAN_MOTION":13.12443803,"ECCENTRICITY":0.00018058,"INCLINATION":87.8908,"RA_OF_ASC_NODE":44.7436,"ARG_OF_PERICENTER":99.9039,"MEAN_ANOMALY":260.2293,"EPHEMERIS_TYPE":0,"CLASSIFICATION_TYPE":"U","NORAD_CAT_ID":49078,"ELEMENT_SET_NO":999,"REV_AT_EPOCH":19947,"BSTAR":0.0013031212,"MEAN_MOTION_DOT":4.82e-6,"MEAN_MOTION_DDOT":0},{"OBJECT_NAME":"ONEWEB-0289","OBJECT_ID":"2021-075E","EPOCH":"2025-09-17T23:22:47.183808","MEAN_MOTION":13.17648888,"ECCENTRICITY":0.00017113,"INCLINATION":87.9044,"RA_OF_ASC_NODE":60.0312,"ARG_OF_PERICENTER":107.6607,"MEAN_ANOMALY":252.4712,"EPHEMERIS_TYPE":0,"CLASSIFICATION_TYPE":"U","NORAD_CAT_ID":49079,"ELEMENT_SET_NO":999,"REV_AT_EPOCH":19835,"BSTAR":4.6848685e-5,"MEAN_MOTION_DOT":3.1e-7,"MEAN_MOTION_DDOT":0},{"OBJECT_NAME":"ONEWEB-0290","OBJECT_ID":"2021-075F","EPOCH":"2025-09-17T22:44:05.978688","MEAN_MOTION":13.17647771,"ECCENTRICITY":0.00015139,"INCLINATION":87.9052,"RA_OF_ASC_NODE":59.9912,"ARG_OF_PERICENTER":113.478,"MEAN_ANOMALY":246.651,"EPHEMERIS_TYPE":0,"CLASSIFICATION_TYPE":"U","NORAD_CAT_ID":49080,"ELEMENT_SET_NO":999,"REV_AT_EPOCH":19776,"BSTAR":-0.00040040568,"MEAN_MOTION_DOT":-1.43e-6,"MEAN_MOTION_DDOT":0},{"OBJECT_NAME":"ONEWEB-0291","OBJECT_ID":"2021-075G","EPOCH":"2025-09-18T00:11:35.626272","MEAN_MOTION":13.17648454,"ECCENTRICITY":0.00020659,"INCLINATION":87.9055,"RA_OF_ASC_NODE":59.9841,"ARG_OF_PERICENTER":99.8953,"MEAN_ANOMALY":260.2412,"EPHEMERIS_TYPE":0,"CLASSIFICATION_TYPE":"U","NORAD_CAT_ID":49081,"ELEMENT_SET_NO":999,"REV_AT_EPOCH":19776,"BSTAR":-0.00036786915,"MEAN_MOTION_DOT":-1.3e-6,"MEAN_MOTION_DDOT":0},{"OBJECT_NAME":"ONEWEB-0293","OBJECT_ID":"2021-075H","EPOCH":"2025-09-17T21:09:19.834848","MEAN_MOTION":13.17648513,"ECCENTRICITY":0.00017184,"INCLINATION":87.9042,"RA_OF_ASC_NODE":60.0381,"ARG_OF_PERICENTER":97.9184,"MEAN_ANOMALY":262.2143,"EPHEMERIS_TYPE":0,"CLASSIFICATION_TYPE":"U","NORAD_CAT_ID":49082,"ELEMENT_SET_NO":999,"REV_AT_EPOCH":19777,"BSTAR":-0.00061436202,"MEAN_MOTION_DOT":-2.26e-6,"MEAN_MOTION_DDOT":0},{"OBJECT_NAME":"ONEWEB-0294","OBJECT_ID":"2021-075J","EPOCH":"2025-09-17T22:25:01.667712","MEAN_MOTION":13.12443159,"ECCENTRICITY":0.0001757,"INCLINATION":87.8908,"RA_OF_ASC_NODE":44.7428,"ARG_OF_PERICENTER":113.2273,"MEAN_ANOMALY":246.904,"EPHEMERIS_TYPE":0,"CLASSIFICATION_TYPE":"U","NORAD_CAT_ID":49083,"ELEMENT_SET_NO":999,"REV_AT_EPOCH":19886,"BSTAR":0.0010968649,"MEAN_MOTION_DOT":4.07e-6,"MEAN_MOTION_DDOT":0},{"OBJECT_NAME":"ONEWEB-0295","OBJECT_ID":"2021-075K","EPOCH":"2025-09-17T22:57:28.469664","MEAN_MOTION":13.17648029,"ECCENTRICITY":0.00020918,"INCLINATION":87.9052,"RA_OF_ASC_NODE":60.0268,"ARG_OF_PERICENTER":97.9375,"MEAN_ANOMALY":262.1994,"EPHEMERIS_TYPE":0,"CLASSIFICATION_TYPE":"U","NORAD_CAT_ID":49084,"ELEMENT_SET_NO":999,"REV_AT_EPOCH":19774,"BSTAR":9.3149704e-5,"MEAN_MOTION_DOT":4.9e-7,"MEAN_MOTION_DDOT":0},{"OBJECT_NAME":"ONEWEB-0296","OBJECT_ID":"2021-075L","EPOCH":"2025-09-17T21:56:58.199136","MEAN_MOTION":13.1245072,"ECCENTRICITY":0.00020732,"INCLINATION":87.89,"RA_OF_ASC_NODE":44.7523,"ARG_OF_PERICENTER":108.7556,"MEAN_ANOMALY":251.3798,"EPHEMERIS_TYPE":0,"CLASSIFICATION_TYPE":"U","NORAD_CAT_ID":49085,"ELEMENT_SET_NO":999,"REV_AT_EPOCH":19886,"BSTAR":0.0018695609,"MEAN_MOTION_DOT":6.85e-6,"MEAN_MOTION_DDOT":0},{"OBJECT_NAME":"ONEWEB-0297","OBJECT_ID":"2021-075M","EPOCH":"2025-09-17T22:41:21.340896","MEAN_MOTION":13.1244326,"ECCENTRICITY":0.00017717,"INCLINATION":87.8901,"RA_OF_ASC_NODE":44.7835,"ARG_OF_PERICENTER":95.2343,"MEAN_ANOMALY":264.8987,"EPHEMERIS_TYPE":0,"CLASSIFICATION_TYPE":"U","NORAD_CAT_ID":49086,"ELEMENT_SET_NO":999,"REV_AT_EPOCH":19947,"BSTAR":0.00032974662,"MEAN_MOTION_DOT":1.31e-6,"MEAN_MOTION_DDOT":0},{"OBJECT_NAME":"ONEWEB-0298","OBJECT_ID":"2021-075N","EPOCH":"2025-09-17T21:14:23.228448","MEAN_MOTION":13.1764718,"ECCENTRICITY":0.00017274,"INCLINATION":87.9049,"RA_OF_ASC_NODE":60.0354,"ARG_OF_PERICENTER":91.9259,"MEAN_ANOMALY":268.207,"EPHEMERIS_TYPE":0,"CLASSIFICATION_TYPE":"U","NORAD_CAT_ID":49087,"ELEMENT_SET_NO":999,"REV_AT_EPOCH":19776,"BSTAR":-0.00014026618,"MEAN_MOTION_DOT":-4.2e-7,"MEAN_MOTION_DDOT":0},{"OBJECT_NAME":"ONEWEB-0299","OBJECT_ID":"2021-075P","EPOCH":"2025-09-17T23:05:58.157088","MEAN_MOTION":13.17647828,"ECCENTRICITY":0.00019644,"INCLINATION":87.9054,"RA_OF_ASC_NODE":59.9772,"ARG_OF_PERICENTER":90.364,"MEAN_ANOMALY":269.7717,"EPHEMERIS_TYPE":0,"CLASSIFICATION_TYPE":"U","NORAD_CAT_ID":49088,"ELEMENT_SET_NO":999,"REV_AT_EPOCH":19775,"BSTAR":-0.0004155497,"MEAN_MOTION_DOT":-1.48e-6,"MEAN_MOTION_DDOT":0},{"OBJECT_NAME":"ONEWEB-0300","OBJECT_ID":"2021-075Q","EPOCH":"2025-09-17T22:29:41.775648","MEAN_MOTION":13.12443407,"ECCENTRICITY":0.00016068,"INCLINATION":87.8905,"RA_OF_ASC_NODE":44.7384,"ARG_OF_PERICENTER":84.655,"MEAN_ANOMALY":275.4762,"EPHEMERIS_TYPE":0,"CLASSIFICATION_TYPE":"U","NORAD_CAT_ID":49089,"ELEMENT_SET_NO":999,"REV_AT_EPOCH":19949,"BSTAR":0.00088757811,"MEAN_MOTION_DOT":3.32e-6,"MEAN_MOTION_DDOT":0},{"OBJECT_NAME":"ONEWEB-0301","OBJECT_ID":"2021-075R","EPOCH":"2025-09-17T22:06:19.899360","MEAN_MOTION":13.12444747,"ECCENTRICITY":0.00015735,"INCLINATION":87.8905,"RA_OF_ASC_NODE":44.746,"ARG_OF_PERICENTER":81.5607,"MEAN_ANOMALY":278.57,"EPHEMERIS_TYPE":0,"CLASSIFICATION_TYPE":"U","NORAD_CAT_ID":49090,"ELEMENT_SET_NO":999,"REV_AT_EPOCH":19885,"BSTAR":0.00088858675,"MEAN_MOTION_DOT":3.32e-6,"MEAN_MOTION_DDOT":0},{"OBJECT_NAME":"ONEWEB-0302","OBJECT_ID":"2021-075S","EPOCH":"2025-09-18T05:06:44.756064","MEAN_MOTION":13.12444505,"ECCENTRICITY":0.00018004,"INCLINATION":87.891,"RA_OF_ASC_NODE":44.6942,"ARG_OF_PERICENTER":108.7412,"MEAN_ANOMALY":251.3912,"EPHEMERIS_TYPE":0,"CLASSIFICATION_TYPE":"U","NORAD_CAT_ID":49091,"ELEMENT_SET_NO":999,"REV_AT_EPOCH":19887,"BSTAR":-0.00086156682,"MEAN_MOTION_DOT":-2.97e-6,"MEAN_MOTION_DDOT":0},{"OBJECT_NAME":"ONEWEB-0304","OBJECT_ID":"2021-075T","EPOCH":"2025-09-18T00:18:52.602048","MEAN_MOTION":13.17648494,"ECCENTRICITY":0.00018794,"INCLINATION":87.9054,"RA_OF_ASC_NODE":59.9979,"ARG_OF_PERICENTER":94.4432,"MEAN_ANOMALY":265.6914,"EPHEMERIS_TYPE":0,"CLASSIFICATION_TYPE":"U","NORAD_CAT_ID":49092,"ELEMENT_SET_NO":999,"REV_AT_EPOCH":19773,"BSTAR":-0.00017474887,"MEAN_MOTION_DOT":-5.5e-7,"MEAN_MOTION_DDOT":0},{"OBJECT_NAME":"ONEWEB-0305","OBJECT_ID":"2021-075U","EPOCH":"2025-09-18T00:09:09.720864","MEAN_MOTION":13.1764744,"ECCENTRICITY":0.0002168,"INCLINATION":87.9055,"RA_OF_ASC_NODE":59.9759,"ARG_OF_PERICENTER":94.1126,"MEAN_ANOMALY":266.0254,"EPHEMERIS_TYPE":0,"CLASSIFICATION_TYPE":"U","NORAD_CAT_ID":49093,"ELEMENT_SET_NO":999,"REV_AT_EPOCH":19776,"BSTAR":1.9229253e-5,"MEAN_MOTION_DOT":2.0e-7,"MEAN_MOTION_DDOT":0},{"OBJECT_NAME":"ONEWEB-0308","OBJECT_ID":"2021-075V","EPOCH":"2025-09-17T21:38:17.402784","MEAN_MOTION":13.12444826,"ECCENTRICITY":0.00017141,"INCLINATION":87.8911,"RA_OF_ASC_NODE":44.7479,"ARG_OF_PERICENTER":96.2328,"MEAN_ANOMALY":263.8996,"EPHEMERIS_TYPE":0,"CLASSIFICATION_TYPE":"U","NORAD_CAT_ID":49094,"ELEMENT_SET_NO":999,"REV_AT_EPOCH":19884,"BSTAR":-0.00071917448,"MEAN_MOTION_DOT":-2.46e-6,"MEAN_MOTION_DDOT":0},{"OBJECT_NAME":"ONEWEB-0309","OBJECT_ID":"2021-075W","EPOCH":"2025-09-18T00:14:00.735936","MEAN_MOTION":13.17649258,"ECCENTRICITY":0.00017869,"INCLINATION":87.9052,"RA_OF_ASC_NODE":59.9922,"ARG_OF_PERICENTER":107.4724,"MEAN_ANOMALY":252.6603,"EPHEMERIS_TYPE":0,"CLASSIFICATION_TYPE":"U","NORAD_CAT_ID":49095,"ELEMENT_SET_NO":999,"REV_AT_EPOCH":19773,"BSTAR":2.9012757e-5,"MEAN_MOTION_DOT":2.4e-7,"MEAN_MOTION_DDOT":0},{"OBJECT_NAME":"ONEWEB-0310","OBJECT_ID":"2021-075X","EPOCH":"2025-09-17T20:09:32.080896","MEAN_MOTION":13.12445228,"ECCENTRICITY":0.00017315,"INCLINATION":87.8902,"RA_OF_ASC_NODE":44.8046,"ARG_OF_PERICENTER":100.3334,"MEAN_ANOMALY":259.799,"EPHEMERIS_TYPE":0,"CLASSIFICATION_TYPE":"U","NORAD_CAT_ID":49096,"ELEMENT_SET_NO":999,"REV_AT_EPOCH":19946,"BSTAR":0.00067004746,"MEAN_MOTION_DOT":2.54e-6,"MEAN_MOTION_DDOT":0},{"OBJECT_NAME":"ONEWEB-0311","OBJECT_ID":"2021-075Y","EPOCH":"2025-09-17T22:34:22.741536","MEAN_MOTION":13.17649624,"ECCENTRICITY":0.00021245,"INCLINATION":87.9047,"RA_OF_ASC_NODE":60.0034,"ARG_OF_PERICENTER":90.8803,"MEAN_ANOMALY":269.2572,"EPHEMERIS_TYPE":0,"CLASSIFICATION_TYPE":"U","NORAD_CAT_ID":49097,"ELEMENT_SET_NO":999,"REV_AT_EPOCH":19777,"BSTAR":9.5426898e-5,"MEAN_MOTION_DOT":5.0e-7,"MEAN_MOTION_DDOT":0},{"OBJECT_NAME":"ONEWEB-0312","OBJECT_ID":"2021-075Z","EPOCH":"2025-09-17T22:56:15.425376","MEAN_MOTION":13.17648611,"ECCENTRICITY":0.00020589,"INCLINATION":87.9043,"RA_OF_ASC_NODE":60.0321,"ARG_OF_PERICENTER":99.7402,"MEAN_ANOMALY":260.3962,"EPHEMERIS_TYPE":0,"CLASSIFICATION_TYPE":"U","NORAD_CAT_ID":49098,"ELEMENT_SET_NO":999,"REV_AT_EPOCH":19775,"BSTAR":-0.00013253702,"MEAN_MOTION_DOT":-3.9e-7,"MEAN_MOTION_DDOT":0},{"OBJECT_NAME":"ONEWEB-0313","OBJECT_ID":"2021-075AA","EPOCH":"2025-09-17T23:03:21.280608","MEAN_MOTION":13.17649531,"ECCENTRICITY":0.00018429,"INCLINATION":87.9037,"RA_OF_ASC_NODE":60.0423,"ARG_OF_PERICENTER":93.5862,"MEAN_ANOMALY":266.5481,"EPHEMERIS_TYPE":0,"CLASSIFICATION_TYPE":"U","NORAD_CAT_ID":49099,"ELEMENT_SET_NO":999,"REV_AT_EPOCH":19774,"BSTAR":0.00011851318,"MEAN_MOTION_DOT":5.9e-7,"MEAN_MOTION_DDOT":0},{"OBJECT_NAME":"ONEWEB-0314","OBJECT_ID":"2021-075AB","EPOCH":"2025-09-18T00:04:17.931648","MEAN_MOTION":13.17648044,"ECCENTRICITY":0.00021031,"INCLINATION":87.9056,"RA_OF_ASC_NODE":59.9734,"ARG_OF_PERICENTER":97.9668,"MEAN_ANOMALY":262.1703,"EPHEMERIS_TYPE":0,"CLASSIFICATION_TYPE":"U","NORAD_CAT_ID":49100,"ELEMENT_SET_NO":999,"REV_AT_EPOCH":19772,"BSTAR":-0.0002464824,"MEAN_MOTION_DOT":-8.3e-7,"MEAN_MOTION_DDOT":0}]
